"""Vendored Earth-resources TLE snapshot for aeossp_standard generation.

Frozen from CelesTrak Earth Resources GP
(`gp.php?GROUP=resource&FORMAT=tle`). The generator writes
`dataset/source_data/celestrak/` from this list so canonical rebuilds do
not depend on live element sets or network fetches for TLEs.
"""

from __future__ import annotations

from typing import Any

# Sorted by norad_catalog_id for stable CSV output and checksums.
CACHED_CELESTRAK_ROWS: list[dict[str, Any]] = [
    {
        "name": 'SCD 1',
        "norad_catalog_id": '22490',
        "tle_line1": '1 22490U 93009B   26103.70121796  .00000379  00000+0  52622-4 0  9992',
        "tle_line2": '2 22490  24.9690 245.7309 0041887 175.2294 208.0879 14.46091337751776',
        "epoch_iso": '2026-04-13T16:49:45.231744Z',
        "inclination_deg": '24.969000',
        "eccentricity": '0.00418870',
        "mean_motion_rev_per_day": '14.46091337',
        "altitude_m": '738443.370',
    },
    {
        "name": 'TECHSAT 1B (GO-32)',
        "norad_catalog_id": '25397',
        "tle_line1": '1 25397U 98043D   26103.51078617  .00000039  00000+0  37238-4 0  9995',
        "tle_line2": '2 25397  99.0057  94.6453 0002163  63.7631 296.3769 14.24415573442128',
        "epoch_iso": '2026-04-13T12:15:31.925088Z',
        "inclination_deg": '99.005700',
        "eccentricity": '0.00021630',
        "mean_motion_rev_per_day": '14.24415573',
        "altitude_m": '810458.266',
    },
    {
        "name": 'SCD 2',
        "norad_catalog_id": '25504',
        "tle_line1": '1 25504U 98060A   26103.70198061  .00000322  00000+0  38930-4 0  9996',
        "tle_line2": '2 25504  24.9943 109.8288 0016854 160.8149   0.0927 14.45501164450983',
        "epoch_iso": '2026-04-13T16:50:51.124704Z',
        "inclination_deg": '24.994300',
        "eccentricity": '0.00168540',
        "mean_motion_rev_per_day": '14.45501164',
        "altitude_m": '740380.289',
    },
    {
        "name": 'DLR-TUBSAT',
        "norad_catalog_id": '25757',
        "tle_line1": '1 25757U 99029B   26103.94947499  .00000050  00000+0  24049-4 0  9999',
        "tle_line2": '2 25757  98.6688  97.3456 0014151 180.8161 179.3013 14.52410353423926',
        "epoch_iso": '2026-04-13T22:47:14.639136Z',
        "inclination_deg": '98.668800',
        "eccentricity": '0.00141510',
        "mean_motion_rev_per_day": '14.52410353',
        "altitude_m": '717786.923',
    },
    {
        "name": 'TERRA',
        "norad_catalog_id": '25994',
        "tle_line1": '1 25994U 99068A   26103.91529972  .00000235  00000+0  56796-4 0  9993',
        "tle_line2": '2 25994  97.9522 155.9913 0003609  80.3328 332.6832 14.61052239400228',
        "epoch_iso": '2026-04-13T21:58:01.895808Z',
        "inclination_deg": '97.952200',
        "eccentricity": '0.00036090',
        "mean_motion_rev_per_day": '14.61052239',
        "altitude_m": '689778.444',
    },
    {
        "name": 'MAROC-TUBSAT',
        "norad_catalog_id": '27004',
        "tle_line1": '1 27004U 01056D   26103.73946340 -.00000015  00000+0  35702-4 0  9990',
        "tle_line2": '2 27004  99.8050 279.3892 0019209 309.4550  72.8087 13.70259742217364',
        "epoch_iso": '2026-04-13T17:44:49.637760Z',
        "inclination_deg": '99.805000',
        "eccentricity": '0.00192090',
        "mean_motion_rev_per_day": '13.70259742',
        "altitude_m": '998638.654',
    },
    {
        "name": 'AQUA',
        "norad_catalog_id": '27424',
        "tle_line1": '1 27424U 02022A   26103.93344858  .00000551  00000+0  11961-3 0  9992',
        "tle_line2": '2 27424  98.4229  71.9566 0001743 108.2096 327.6573 14.62057608273880',
        "epoch_iso": '2026-04-13T22:24:09.957312Z',
        "inclination_deg": '98.422900',
        "eccentricity": '0.00017430',
        "mean_motion_rev_per_day": '14.62057608',
        "altitude_m": '686537.952',
    },
    {
        "name": 'IRS-P6 (RESOURCESAT-1)',
        "norad_catalog_id": '28051',
        "tle_line1": '1 28051U 03046A   26103.92936350  .00000126  00000+0  55914-4 0  9994',
        "tle_line2": '2 28051  98.1985 143.5711 0064246 173.9227 286.4737 14.36137850171300',
        "epoch_iso": '2026-04-13T22:18:17.006400Z',
        "inclination_deg": '98.198500',
        "eccentricity": '0.00642460',
        "mean_motion_rev_per_day": '14.36137850',
        "altitude_m": '771287.580',
    },
    {
        "name": 'SHIYAN-1 (SY-1)',
        "norad_catalog_id": '28220',
        "tle_line1": '1 28220U 04012A   26103.62430704  .00006703  00000+0  21878-3 0  9993',
        "tle_line2": '2 28220  97.8720 177.5805 0004888 238.1499 121.9265 15.32136461201209',
        "epoch_iso": '2026-04-13T14:59:00.128256Z',
        "inclination_deg": '97.872000',
        "eccentricity": '0.00048880',
        "mean_motion_rev_per_day": '15.32136461',
        "altitude_m": '469439.237',
    },
    {
        "name": 'AURA',
        "norad_catalog_id": '28376',
        "tle_line1": '1 28376U 04026A   26103.89463391  .00000544  00000+0  12006-3 0  9997',
        "tle_line2": '2 28376  98.3365  59.8411 0001579  91.8390 268.2991 14.61229251156824',
        "epoch_iso": '2026-04-13T21:28:16.369824Z',
        "inclination_deg": '98.336500',
        "eccentricity": '0.00015790',
        "mean_motion_rev_per_day": '14.61229251',
        "altitude_m": '689207.632',
    },
    {
        "name": 'IRS-P5 (CARTOSAT-1)',
        "norad_catalog_id": '28649',
        "tle_line1": '1 28649U 05017A   26103.78459344  .00000718  00000+0  78137-4 0  9993',
        "tle_line2": '2 28649  97.5369 129.7615 0000594  88.5323 271.5964 14.90885377134226',
        "epoch_iso": '2026-04-13T18:49:48.873216Z',
        "inclination_deg": '97.536900',
        "eccentricity": '0.00005940',
        "mean_motion_rev_per_day": '14.90885377',
        "altitude_m": '595173.519',
    },
    {
        "name": 'SINAH 1',
        "norad_catalog_id": '28893',
        "tle_line1": '1 28893U 05043D   26103.95098891  .00000225  00000+0  52065-4 0  9993',
        "tle_line2": '2 28893  98.2754 237.9312 0015659 115.8522 244.4297 14.64112876 91129',
        "epoch_iso": '2026-04-13T22:49:25.441824Z',
        "inclination_deg": '98.275400',
        "eccentricity": '0.00156590',
        "mean_motion_rev_per_day": '14.64112876',
        "altitude_m": '679924.983',
    },
    {
        "name": 'RESURS-DK 1',
        "norad_catalog_id": '29228',
        "tle_line1": '1 29228U 06021A   26103.51247090  .00001184  00000+0  73127-4 0  9999',
        "tle_line2": '2 29228  69.9300 146.9354 0002389  10.6093 349.5123 15.12944562 92798',
        "epoch_iso": '2026-04-13T12:17:57.485760Z',
        "inclination_deg": '69.930000',
        "eccentricity": '0.00023890',
        "mean_motion_rev_per_day": '15.12944562',
        "altitude_m": '527225.758',
    },
    {
        "name": 'ARIRANG-2 (KOMPSAT-2)',
        "norad_catalog_id": '29268',
        "tle_line1": '1 29268U 06031A   26103.95664500  .00000495  00000+0  10149-3 0  9999',
        "tle_line2": '2 29268  97.8315 291.5092 0013027 278.9851 240.7044 14.64620574 52077',
        "epoch_iso": '2026-04-13T22:57:34.128000Z',
        "inclination_deg": '97.831500',
        "eccentricity": '0.00130270',
        "mean_motion_rev_per_day": '14.64620574',
        "altitude_m": '678293.812',
    },
    {
        "name": 'LAPAN-TUBSAT',
        "norad_catalog_id": '29709',
        "tle_line1": '1 29709U 07001A   26103.94514803  .00000618  00000+0  77463-4 0  9996',
        "tle_line2": '2 29709  98.1348 101.7263 0013123  39.9892 320.2287 14.85884424 41616',
        "epoch_iso": '2026-04-13T22:41:00.789792Z',
        "inclination_deg": '98.134800',
        "eccentricity": '0.00131230',
        "mean_motion_rev_per_day": '14.85884424',
        "altitude_m": '610811.193',
    },
    {
        "name": 'HAIYANG-1B',
        "norad_catalog_id": '31113',
        "tle_line1": '1 31113U 07010A   26103.67812232  .00000060  00000+0  38674-4 0  9997',
        "tle_line2": '2 31113  98.3468  88.0376 0014286  36.9014 323.3150 14.31010862991401',
        "epoch_iso": '2026-04-13T16:16:29.768448Z',
        "inclination_deg": '98.346800',
        "eccentricity": '0.00142860',
        "mean_motion_rev_per_day": '14.31010862',
        "altitude_m": '788353.912',
    },
    {
        "name": 'COSMO-SKYMED 1',
        "norad_catalog_id": '31598',
        "tle_line1": '1 31598U 07023A   26103.96460412  .00001516  00000+0  13767-3 0  9991',
        "tle_line2": '2 31598  97.8881 295.2869 0001483  86.4576 273.6815 14.96796351 20186',
        "epoch_iso": '2026-04-13T23:09:01.795968Z',
        "inclination_deg": '97.888100',
        "eccentricity": '0.00014830',
        "mean_motion_rev_per_day": '14.96796351',
        "altitude_m": '576802.623',
    },
    {
        "name": 'TERRASAR-X',
        "norad_catalog_id": '31698',
        "tle_line1": '1 31698U 07026A   26103.50907317  .00000427  00000+0  23533-4 0  9998',
        "tle_line2": '2 31698  97.4459 112.1365 0001673  91.2188 268.9238 15.19153092 43407',
        "epoch_iso": '2026-04-13T12:13:03.921888Z',
        "inclination_deg": '97.445900',
        "eccentricity": '0.00016730',
        "mean_motion_rev_per_day": '15.19153092',
        "altitude_m": '508398.861',
    },
    {
        "name": 'WORLDVIEW-1 (WV-1)',
        "norad_catalog_id": '32060',
        "tle_line1": '1 32060U 07041A   26103.76359252  .00003751  00000+0  15692-3 0  9995',
        "tle_line2": '2 32060  97.3856 224.4135 0001044 279.1380  80.9739 15.24186654 33061',
        "epoch_iso": '2026-04-13T18:19:34.393728Z',
        "inclination_deg": '97.385600',
        "eccentricity": '0.00010440',
        "mean_motion_rev_per_day": '15.24186654',
        "altitude_m": '493228.841',
    },
    {
        "name": 'YAOGAN-3',
        "norad_catalog_id": '32289',
        "tle_line1": '1 32289U 07055A   26103.95489021  .00001040  00000+0  11212-3 0  9995',
        "tle_line2": '2 32289  97.8224 134.4604 0001171  89.3721 270.7631 14.90538904996294',
